[{"OBJECT_NAME":"STARLINK-6169","OBJECT_ID":"2023-083P","EPOCH":"2026-03-09T01:06:03.264768","MEAN_MOTION":15.02534576,"ECCENTRICITY":0.00014482,"INCLINATION":43.0038,"RA_OF_ASC_NODE":85.2649,"ARG_OF_PERICENTER":270.0227,"MEAN_ANOMALY":90.0449,"EPHEMERIS_TYPE":0,"CLASSIFICATION_TYPE":"U","NORAD_CAT_ID":56889,"ELEMENT_SET_NO":999,"REV_AT_EPOCH":15157,"BSTAR":3.301894e-6,"MEAN_MOTION_DOT":-1.59e-6,"MEAN_MOTION_DDOT":0},{"OBJECT_NAME":"RAPIDEYE 5","OBJECT_ID":"2008-040B","EPOCH":"2026-03-09T15:17:22.403904","MEAN_MOTION":15.02179038,"ECCENTRICITY":0.0014834,"INCLINATION":97.3944,"RA_OF_ASC_NODE":91.3825,"ARG_OF_PERICENTER":86.9831,"MEAN_ANOMALY":273.3091,"EPHEMERIS_TYPE":0,"CLASSIFICATION_TYPE":"U","NORAD_CAT_ID":33313,"ELEMENT_SET_NO":999,"REV_AT_EPOCH":95055,"BSTAR":0.00014028,"MEAN_MOTION_DOT":1.794e-5,"MEAN_MOTION_DDOT":0}]
